STARLINK-2076           
1 47362U 21005P   25226.43214958  .00000378  00000+0  44287-4 0  9999
2 47362  53.0550 272.0339 0001276  84.5773 275.5361 15.06390191251808
STARLINK-2081           
1 47366U 21005T   25226.39528728  .00001744  00000+0  13595-3 0  9996
2 47366  53.0546 272.2001 0001026  91.1021 269.0086 15.06389718251791
STARLINK-2082           
1 47367U 21005U   25226.42108523  .00000286  00000+0  38092-4 0  9998
2 47367  53.0548 272.0837 0001233  77.9178 282.1949 15.06395140251806
STARLINK-2084           
1 47368U 21005V   25226.41371945  .00002796  00000+0  20650-3 0  9996
2 47368  53.0535 272.1202 0000867  85.5164 274.5924 15.06408019251800
STARLINK-2086           
1 47370U 21005X   25226.38599254  .00067988  00000+0  20636-2 0  9997
2 47370  53.0524 226.0199 0005843  18.8532 341.2684 15.33476185252457
STARLINK-2088           
1 47371U 21005Y   25226.36211170  .00000199  00000+0  32225-4 0  9994
2 47371  53.0538 272.3480 0000951  84.0797 276.0300 15.06400505251792
STARLINK-2092           
1 47373U 21005AA  25226.42477203  .00000677  00000+0  64362-4 0  9992
2 47373  53.0541 272.0692 0001253  87.4430 272.6703 15.06402836251807
STARLINK-2093           
1 47374U 21005AB  25226.44320120  .00000141  00000+0  28329-4 0  9999
2 47374  53.0541 271.9557 0001095  85.0582 275.0532 15.06399268251803
STARLINK-2094           
1 47375U 21005AC  25226.45057640  .00001227  00000+0  10126-3 0  9996
2 47375  53.0544 271.9524 0001247  88.8957 271.2175 15.06396810251808
STARLINK-2096           
1 47376U 21005AD  25226.38792378  .00002667  00000+0  19791-3 0  9999
2 47376  53.0538 272.2337 0001169  88.2850 271.8273 15.06394786251790
STARLINK-2097           
1 47377U 21005AE  25226.50587408  .00001013  00000+0  86885-4 0  9993
2 47377  53.0540 271.7062 0000887 107.7843 252.3243 15.06395771251817
STARLINK-2098           
1 47378U 21005AF  25226.43214297 -.00000577  00000+0 -19869-4 0  9993
2 47378  53.0555 232.0370 0001057  82.8337 277.2772 15.06397154252368
STARLINK-2099           
1 47379U 21005AG  25226.30588926  .00005519  00000+0  38924-3 0  9994
2 47379  53.0526 232.5916 0000975  84.8574 275.2526 15.06384656252347
STARLINK-2100           
1 47380U 21005AH  25226.33539811  .00000705  00000+0  66235-4 0  9997
2 47380  53.0533 242.4704 0001303  81.3187 278.7950 15.06397188252219
STARLINK-2101           
1 47381U 21005AJ  25226.41789077  .00006019  00000+0  42270-3 0  9994
2 47381  53.0534 247.1859 0001277  81.7050 278.4084 15.06395554252150
STARLINK-2102           
1 47382U 21005AK  25226.32801381 -.00000166  00000+0  77155-5 0  9998
2 47382  53.0532 242.5026 0001182  86.8230 273.2894 15.06399320252208
STARLINK-2103           
1 47383U 21005AL  25226.43955712  .00000130  00000+0  27650-4 0  9993
2 47383  53.0537 232.2815 0001326  90.0605 270.0535 15.06396573252360
STARLINK-2104           
1 47384U 21005AM  25226.31330633  .00000759  00000+0  69846-4 0  9990
2 47384  53.0537 242.8076 0001136  90.3128 269.7991 15.06396784252207
STARLINK-2105           
1 47385U 21005AN  25226.30959739  .00001285  00000+0  10510-3 0  9992
2 47385  53.0538 242.5846 0001353  89.8716 270.2428 15.06404314252209
STARLINK-2106           
1 47386U 21005AP  25226.53811553  .00000044  00000+0  21831-4 0  9990
2 47386  53.0536 241.5600 0001518  86.7762 273.3401 15.06393895252245
STARLINK-2109           
1 47388U 21005AR  25226.40634694  .00002169  00000+0  16441-3 0  9997
2 47388  53.0534 272.1527 0001028  81.6396 278.4709 15.06406490251798
STARLINK-2110           
1 47389U 21005AS  25226.45147138  .00000525  00000+0  54161-4 0  9991
2 47389  53.0538 251.9373 0001206  79.8696 280.2429 15.06399419252082
STARLINK-2111           
1 47390U 21005AT  25226.44688548  .00004640  00000+0  33009-3 0  9996
2 47390  53.0542 271.9704 0001110  60.6264 299.4836 15.06407543251803
STARLINK-2112           
1 47391U 21005AU  25226.45607865  .00001032  00000+0  88149-4 0  9999
2 47391  53.0545 241.9279 0001032  86.9725 273.1382 15.06402527252226
STARLINK-2113           
1 47392U 21005AV  25226.45702030  .00001739  00000+0  13559-3 0  9996
2 47392  53.0544 241.9233 0001270  85.3025 274.8109 15.06399556252228
STARLINK-2114           
1 47393U 21005AW  25226.68236875 -.00000251  00000+0  20315-5 0  9990
2 47393  53.0550 216.2669 0001358  90.3819 269.7326 15.06396161252603
STARLINK-2117           
1 47395U 21005AY  25226.43583010  .00000948  00000+0  82536-4 0  9995
2 47395  53.0538 232.0183 0000968  68.8648 291.2445 15.06393919252367
STARLINK-2119           
1 47397U 21005BA  25226.47637762  .00000203  00000+0  32509-4 0  9994
2 47397  53.0545 271.8379 0000909  85.1335 274.9758 15.06401614251811
STARLINK-2121           
1 47399U 21005BC  25226.41927597  .00000397  00000+0  45554-4 0  9996
2 47399  53.0541 252.3323 0001192  80.5045 279.6079 15.06406571252078
STARLINK-2122           
1 47400U 21005BD  25226.44689100 -.00000353  00000+0 -48267-5 0  9996
2 47400  53.0534 231.9765 0001284  83.8882 276.2253 15.06394158252369
STARLINK-2123           
1 47401U 21005BE  25226.46440067 -.00000284  00000+0 -16286-6 0  9996
2 47401  53.0538 241.8893 0001095  86.1463 273.9651 15.06395146252237
STARLINK-2128           
1 47404U 21005BH  25226.42016793 -.00000152  00000+0  86836-5 0  9990
2 47404  53.0543 242.0893 0001116  87.9000 272.2117 15.06394032252220
STARLINK-2130           
1 47405U 21005BJ  25226.40265493  .00001535  00000+0  12194-3 0  9991
2 47405  53.0550 272.1703 0001195  91.6894 268.4232 15.06396520251793
STARLINK-2133           
1 47406U 21005BK  25226.36487365  .00001268  00000+0  10404-3 0  9996
2 47406  53.0542 242.3375 0001270  88.2768 271.8367 15.06395197252219
STARLINK-2134           
1 47407U 21005BL  25226.30590945  .00001321  00000+0  10756-3 0  9990
2 47407  53.0543 242.6026 0001278  81.3358 278.7776 15.06407936252208
STARLINK-2135           
1 47408U 21005BM  25226.47545453  .00000093  00000+0  25113-4 0  9992
2 47408  53.0544 241.8406 0001118  78.8433 281.2682 15.06400758252234
ASTROCAST-0101          
1 47430U 21006T   25226.90701450  .00021983  00000+0  42515-3 0  9992
2 47430  97.2832 284.0020 0006349 150.8394 209.3213 15.47751905252204
CUBEL                   
1 47448U 21006AM  25226.91253730  .00014068  00000+0  44266-3 0  9996
2 47448  97.2826 276.0873 0008211 184.7648 175.3518 15.33022644252690
CELESTIS-17 & SHERPA-FX1
1 47486U 21006CB  25226.81847803  .00005101  00000+0  19113-3 0  9998
2 47486  97.2724 270.3042 0006729 195.5801 164.5233 15.27683582252452
ASTROCAST-0103          
1 47487U 21006CC  25226.92275113  .00025594  00000+0  45798-3 0  9996
2 47487  97.2971 286.1209 0006233 154.6341 205.5217 15.49952803253292
HAWK-2C                 
1 47502U 21006CT  25226.84679197  .00005947  00000+0  21243-3 0  9994
2 47502  97.2744 272.5401 0007058 204.3538 155.7370 15.29190071252595
ION SCV-002             
1 47504U 21006CV  25226.73913766  .00009351  00000+0  27534-3 0  9999
2 47504  97.1131 232.2987 0015011 141.8393 218.3917 15.35146686252874
HAWK-2A                 
1 47505U 21006CW  25226.91364966  .00005339  00000+0  19122-3 0  9998
2 47505  97.2794 273.1062 0006649 206.4661 153.6241 15.29154935252603
HAWK-2B                 
1 47508U 21006CZ  25226.84712524  .00004225  00000+0  15169-3 0  9990
2 47508  97.2662 271.8912 0007259 205.7106 154.3774 15.29187088252595
GHGSAT-C2               
1 47509U 21006DA  25226.54240195  .00005652  00000+0  17976-3 0  9991
2 47509  97.2633 274.1450 0006001 173.6013 186.5307 15.32980979252796
ICEYE-X8                
1 47510U 21006DB  25226.94626942  .00063745  00000+0  54810-3 0  9990
2 47510  97.2672 292.7188 0003923 128.4192 231.7422 15.69136618253910
ASTROCAST-0105          
1 47517U 21006DH  25226.09126037  .00022476  00000+0  43791-3 0  9995
2 47517  97.2673 279.3191 0004622 138.9555 221.2044 15.47542463253031
ASTROCAST-0104          
1 47519U 21006DK  25226.41456033  .00068707  00000+0  12392-2 0  9994
2 47519  97.2890 283.9386 0005875 163.6099 196.5344 15.49511641253167
YAOGAN-31 02A           
1 47532U 21007A   25226.97208266 -.00000039  00000+0  80190-4 0  9992
2 47532  63.4024 209.9636 0148542 359.2856   0.7936 13.45413869223038
YAOGAN-31 02B           
1 47533U 21007B   25226.97210816 -.00000037  00000+0  84675-4 0  9997
2 47533  63.4019 208.9872 0148991 359.3873   0.6948 13.45413206223039
YAOGAN-31 02C           
1 47536U 21007E   25226.97188850 -.00000045  00000+0  71164-4 0  9990
2 47536  63.4018 209.0050 0148652 359.4034   0.6792 13.45413370223012
COSMOS 2549             
1 47546U 21008A   25226.89719216 -.00000029  00000+0  33269-4 0  9995
2 47546  67.1499   9.8560 0006647 278.5266  81.5065 13.96937863231052
STARLINK-1954           
1 47555U 21009H   25226.40265921  .00001629  00000+0  12821-3 0  9998
2 47555  53.0540 232.1677 0001303  86.8936 273.2203 15.06400008249558
STARLINK-1955           
1 47556U 21009J   25226.32977773  .00047297  00000+0  17908-2 0  9996
2 47556  53.0570 243.0031 0005844 352.6644   7.4267 15.26469234249398
STARLINK-1958           
1 47559U 21009M   25226.67727281  .00001824  00000+0  14134-3 0  9999
2 47559  53.0538 210.9341 0001451  76.2353 283.8798 15.06393653249879
STARLINK-1962           
1 47563U 21009R   25226.42845301  .00000971  00000+0  84059-4 0  9997
2 47563  53.0530 232.0528 0001161  83.3538 276.7583 15.06396644249551
STARLINK-1964           
1 47565U 21009T   25226.35934703  .00001533  00000+0  12181-3 0  9997
2 47565  53.0535 222.3623 0001310  89.1602 270.9537 15.06394015249687
STARLINK-1965           
1 47566U 21009U   25226.62117143  .00065085  00000+0  24201-2 0  9996
2 47566  53.0317 195.0398 0001685 311.3832  48.7020 15.26934271250092
STARLINK-1966           
1 47567U 21009V   25224.99511064  .00620641  18767-3  10658-2 0  9994
2 47567  53.0141 186.0956 0004886  20.2305  55.0861 16.01862795250667
